IRIDIUM 126             
1 42809U 17039G   24021.04207092  .00000525  00000+0  18022-3 0  9993
2 42809  86.3985   0.6206 0002397  81.9741 278.1727 14.34218128344086
IRIDIUM 124             
1 42810U 17039H   24021.18524944  .00000869  00000+0  25238-3 0  9996
2 42810  86.4501 297.3183 0001890  87.4997 272.6420 14.43295703348473
IRIDIUM 128             
1 42811U 17039J   24021.10257591  .00000277  00000+0  91737-4 0  9991
2 42811  86.3952  32.1074 0002130  86.9086 273.2354 14.34216661344125
IRIDIUM 121             
1 42812U 17039K   24021.47971009  .00000220  00000+0  71559-4 0  9997
2 42812  86.3985   0.4597 0002237  87.0480 273.0972 14.34218181344143
IRIDIUM 133             
1 42955U 17061A   24021.55290444  .00000292  00000+0  97350-4 0  9992
2 42955  86.3955  32.0153 0002325  88.7426 271.4036 14.34218448328986
IRIDIUM 100             
1 42956U 17061B   24021.54656370  .00000295  00000+0  98123-4 0  9998
2 42956  86.3953  31.9571 0002153  88.9492 271.1950 14.34216465329004
IRIDIUM 122             
1 42957U 17061C   24021.09622990  .00000249  00000+0  81999-4 0  9992
2 42957  86.3953  32.1436 0002127  85.3672 274.7766 14.34217530328928
IRIDIUM 129             
1 42958U 17061D   24021.54021890  .00000292  00000+0  97114-4 0  9999
2 42958  86.3954  32.0156 0002212  86.0197 274.1251 14.34218792329007
